{
    "type": "FeatureCollection",
    "features": [
        {
            "type": "Feature",
            "properties": {
                "index": "1",
                "name": "臺北市私立自立社區學園",
                "address": "臺北市士林區德行西路93巷7號地下一樓之1",
                "city": "台北市",
                "district": "市士林區",
                "type": "日間服務機構",
                "phone": "(02)2835-8805、(02)2837-5255"
            },
            "geometry": {
                "type": "Point",
                "coordinates": [
                    121.5182112,
                    25.1048184
                ]
            }
        },
        {
            "type": "Feature",
            "properties": {
                "index": "2",
                "name": "臺北市大同發展中心(兼辦早療服務)",
                "address": "臺北市大同區昌吉街52號六-七樓",
                "city": "台北市",
                "district": "市大同區",
                "type": "日間服務機構",
                "phone": "(02)2598-6886"
            },
            "geometry": {
                "type": "Point",
                "coordinates": [
                    121.5136784,
                    25.0656996
                ]
            }
        },
        {
            "type": "Feature",
            "properties": {
                "index": "3",
                "name": "臺北市博愛發展中心（基河）",
                "address": "臺北市中山區敬業三路160號",
                "city": "台北市",
                "district": "市中山區",
                "type": "日間服務機構",
                "phone": "(02)8509-6395"
            },
            "geometry": {
                "type": "Point",
                "coordinates": [
                    121.5543258,
                    25.0795799
                ]
            }
        },
        {
            "type": "Feature",
            "properties": {
                "index": "4",
                "name": "臺北市私立陽光重建中心",
                "address": "臺北市中山區南京東路三段91號三樓",
                "city": "台北市",
                "district": "市中山區",
                "type": "日間服務機構",
                "phone": "(02)2507-8006"
            },
            "geometry": {
                "type": "Point",
                "coordinates": [
                    121.5364325,
                    25.0522678
                ]
            }
        },
        {
            "type": "Feature",
            "properties": {
                "index": "5",
                "name": "臺北市私立心路兒童發展中心(兼辦早療服務)",
                "address": "臺北市中山區復興北路232號",
                "city": "台北市",
                "district": "市中山區",
                "type": "日間服務機構",
                "phone": "(02)2508-0635"
            },
            "geometry": {
                "type": "Point",
                "coordinates": [
                    121.5412351,
                    25.0571129
                ]
            }
        },
        {
            "type": "Feature",
            "properties": {
                "index": "6",
                "name": "臺北市城中發展中心(兼辦早療服務)",
                "address": "臺北市中正區汀州路二段172號",
                "city": "台北市",
                "district": "市中正區",
                "type": "日間服務機構",
                "phone": "(02)2364-3036"
            },
            "geometry": {
                "type": "Point",
                "coordinates": [
                    121.5195086,
                    25.0236916
                ]
            }
        },
        {
            "type": "Feature",
            "properties": {
                "index": "7",
                "name": "臺北市南海發展中心",
                "address": "臺北市中正區延平南路207號1樓",
                "city": "台北市",
                "district": "市中正區",
                "type": "日間服務機構",
                "phone": "(02)2311-3946"
            },
            "geometry": {
                "type": "Point",
                "coordinates": [
                    121.5048758,
                    25.0327805
                ]
            }
        },
        {
            "type": "Feature",
            "properties": {
                "index": "8",
                "name": "臺北市私立婦幼家園(兼辦早療服務)",
                "address": "臺北市內湖區民權東路六段180巷42弄6號",
                "city": "台北市",
                "district": "市內湖區",
                "type": "日間服務機構",
                "phone": "(02)8792-5072"
            },
            "geometry": {
                "type": "Point",
                "coordinates": [
                    121.5897382,
                    25.0672721
                ]
            }
        },
        {
            "type": "Feature",
            "properties": {
                "index": "9",
                "name": "臺北市萬芳啟能中心",
                "address": "臺北市文山區萬美街一段51號一樓",
                "city": "台北市",
                "district": "市文山區",
                "type": "日間服務機構",
                "phone": "(02)2239-5646"
            },
            "geometry": {
                "type": "Point",
                "coordinates": [
                    121.5659297,
                    25.0022443
                ]
            }
        },
        {
            "type": "Feature",
            "properties": {
                "index": "10",
                "name": "臺北市萬芳發展中心(兼辦早療服務)",
                "address": "臺北市文山區萬美街一段55號二樓",
                "city": "台北市",
                "district": "市文山區",
                "type": "日間服務機構",
                "phone": "(02)2239-6169"
            },
            "geometry": {
                "type": "Point",
                "coordinates": [
                    121.5655538,
                    25.0021917
                ]
            }
        },
        {
            "type": "Feature",
            "properties": {
                "index": "11",
                "name": "臺北市永明發展中心(兼辦早療服務)",
                "address": "臺北市北投區石牌路二段115號四-六樓",
                "city": "台北市",
                "district": "市北投區",
                "type": "日間服務機構",
                "phone": "(02)2828-3051"
            },
            "geometry": {
                "type": "Point",
                "coordinates": [
                    121.5149174,
                    25.1183512
                ]
            }
        },
        {
            "type": "Feature",
            "properties": {
                "index": "12",
                "name": "臺北市私立至德聽語中心(提供早療服務)",
                "address": "臺北市北投區振興街45號三樓",
                "city": "台北市",
                "district": "市北投區",
                "type": "日間服務機構",
                "phone": "(02)2820-1825"
            },
            "geometry": {
                "type": "Point",
                "coordinates": [
                    121.5210895,
                    25.1161106
                ]
            }
        },
        {
            "type": "Feature",
            "properties": {
                "index": "13",
                "name": "臺北市私立育成裕民發展中心",
                "address": "臺北市北投區裕民一路41巷2弄18號",
                "city": "台北市",
                "district": "市北投區",
                "type": "日間服務機構",
                "phone": "(02)2821-8468"
            },
            "geometry": {
                "type": "Point",
                "coordinates": [
                    121.5158469,
                    25.1167307
                ]
            }
        },
        {
            "type": "Feature",
            "properties": {
                "index": "14",
                "name": "臺北市慈祐發展中心",
                "address": "臺北市松山區八德路四段688號三樓",
                "city": "台北市",
                "district": "市松山區",
                "type": "日間服務機構",
                "phone": "(02)2742-1213"
            },
            "geometry": {
                "type": "Point",
                "coordinates": [
                    121.5742749,
                    25.0498467
                ]
            }
        },
        {
            "type": "Feature",
            "properties": {
                "index": "15",
                "name": "臺北市恆愛發展中心",
                "address": "臺北市信義區松隆路36號六樓",
                "city": "台北市",
                "district": "市信義區",
                "type": "日間服務機構",
                "phone": "(02)2763-4210"
            },
            "geometry": {
                "type": "Point",
                "coordinates": [
                    121.5649536,
                    25.0433306
                ]
            }
        },
        {
            "type": "Feature",
            "properties": {
                "index": "16",
                "name": "臺北市私立第一兒童發展中心(兼辦早療服務)",
                "address": "臺北市信義區信義路五段150巷316號一樓",
                "city": "台北市",
                "district": "市信義區",
                "type": "日間服務機構",
                "phone": "(02)2729-4304"
            },
            "geometry": {
                "type": "Point",
                "coordinates": [
                    121.567164,
                    25.0268346
                ]
            }
        },
        {
            "type": "Feature",
            "properties": {
                "index": "17",
                "name": "臺北市私立育仁兒童發展中心(兼辦早療服務)",
                "address": "臺北市萬華區萬大路387巷15號",
                "city": "台北市",
                "district": "市萬華區",
                "type": "日間服務機構",
                "phone": "(02)2307-8393"
            },
            "geometry": {
                "type": "Point",
                "coordinates": [
                    121.4971193,
                    25.0220733
                ]
            }
        },
        {
            "type": "Feature",
            "properties": {
                "index": "18",
                "name": "臺北市私立育仁啟能中心",
                "address": "臺北市萬華區柳州街41號四樓",
                "city": "台北市",
                "district": "市萬華區",
                "type": "日間服務機構",
                "phone": "(02)2382-1090"
            },
            "geometry": {
                "type": "Point",
                "coordinates": [
                    121.5028463,
                    25.0384564
                ]
            }
        },
        {
            "type": "Feature",
            "properties": {
                "index": "19",
                "name": "臺北市私立活泉之家",
                "address": "臺北市大安區萬美街一段55號三樓",
                "city": "台北市",
                "district": "市大安區",
                "type": "福利服務中心",
                "phone": "(02)2230-7715#240"
            },
            "geometry": {
                "type": "Point",
                "coordinates": [
                    121.4642215,
                    25.0384507
                ]
            }
        },
        {
            "type": "Feature",
            "properties": {
                "index": "20",
                "name": "臺北市身心障礙者自立生活支持服務中心",
                "address": "臺北市中山區南京西路6號8樓之2",
                "city": "台北市",
                "district": "市中山區",
                "type": "福利服務中心",
                "phone": "(02)2523-6661"
            },
            "geometry": {
                "type": "Point",
                "coordinates": [
                    121.5196456,
                    25.0525311
                ]
            }
        },
        {
            "type": "Feature",
            "properties": {
                "index": "21",
                "name": "臺北市私立八德服務中心",
                "address": "臺北市松山區八德路三段155巷4弄35號",
                "city": "台北市",
                "district": "市松山區",
                "type": "福利服務中心",
                "phone": "(02)2570-2560"
            },
            "geometry": {
                "type": "Point",
                "coordinates": [
                    121.5531558,
                    25.0489529
                ]
            }
        },
        {
            "type": "Feature",
            "properties": {
                "index": "22",
                "name": "三重五華日間照顧中心",
                "address": "新北市三重區五華街7巷30號1樓",
                "city": "新北市",
                "district": "三重區",
                "type": "日間服務機構",
                "phone": "(02)89825885"
            },
            "geometry": {
                "type": "Point",
                "coordinates": [
                    121.4934531,
                    25.0808
                ]
            }
        },
        {
            "type": "Feature",
            "properties": {
                "index": "23",
                "name": "淡水沙崙日間照顧中心",
                "address": "新北市淡水區沙崙路300號1樓",
                "city": "新北市",
                "district": "淡水區",
                "type": "日間服務機構",
                "phone": "(02)28055731"
            },
            "geometry": {
                "type": "Point",
                "coordinates": [
                    121.4251315,
                    25.1869792
                ]
            }
        },
        {
            "type": "Feature",
            "properties": {
                "index": "24",
                "name": "新店文山日間照顧中心",
                "address": "新北市新店區中正路263巷16號3樓",
                "city": "新北市",
                "district": "新店區",
                "type": "日間服務機構",
                "phone": "(02)29182213"
            },
            "geometry": {
                "type": "Point",
                "coordinates": [
                    121.5354111,
                    24.9728789
                ]
            }
        },
        {
            "type": "Feature",
            "properties": {
                "index": "25",
                "name": "三芝區社區式日間照顧中心",
                "address": "新北市三芝區淡金路2段91號1樓",
                "city": "新北市",
                "district": "三芝區",
                "type": "日間服務機構",
                "phone": "(02)26368986"
            },
            "geometry": {
                "type": "Point",
                "coordinates": [
                    121.5015321,
                    25.2608149
                ]
            }
        },
        {
            "type": "Feature",
            "properties": {
                "index": "26",
                "name": "星安日間照顧中心",
                "address": "新北市樹林區保安街一段9號2樓之3",
                "city": "新北市",
                "district": "樹林區",
                "type": "日間服務機構",
                "phone": "(02)26841080"
            },
            "geometry": {
                "type": "Point",
                "coordinates": [
                    121.4236432,
                    24.9936714
                ]
            }
        },
        {
            "type": "Feature",
            "properties": {
                "index": "27",
                "name": "三峽國光日間照顧中心",
                "address": "新北市三峽區國光街41號2樓",
                "city": "新北市",
                "district": "三峽區",
                "type": "日間服務機構",
                "phone": "(02)86726397"
            },
            "geometry": {
                "type": "Point",
                "coordinates": [
                    121.3722365,
                    24.9375783
                ]
            }
        },
        {
            "type": "Feature",
            "properties": {
                "index": "28",
                "name": "幸福日間照顧中心",
                "address": "新北市新莊區幸福東路7號5樓",
                "city": "新北市",
                "district": "新莊區",
                "type": "日間服務機構",
                "phone": "(02)29910125"
            },
            "geometry": {
                "type": "Point",
                "coordinates": [
                    121.4644192,
                    25.049195
                ]
            }
        },
        {
            "type": "Feature",
            "properties": {
                "index": "29",
                "name": "新莊頭前庄障礙者日間照顧中心",
                "address": "新北市新莊區幸福東路7號4樓",
                "city": "新北市",
                "district": "新莊區",
                "type": "日間服務機構",
                "phone": "(02)29988020"
            },
            "geometry": {
                "type": "Point",
                "coordinates": [
                    121.4644192,
                    25.049195
                ]
            }
        },
        {
            "type": "Feature",
            "properties": {
                "index": "30",
                "name": "土城同仁障礙者日間照顧中心",
                "address": "新北市土城區中央路4段127號",
                "city": "新北市",
                "district": "土城區",
                "type": "日間服務機構",
                "phone": "(02)22673230"
            },
            "geometry": {
                "type": "Point",
                "coordinates": [
                    121.413655,
                    24.9574614
                ]
            }
        },
        {
            "type": "Feature",
            "properties": {
                "index": "31",
                "name": "三重重新障礙者日間照顧中心",
                "address": "新北市三重區重新路一段87號4樓",
                "city": "新北市",
                "district": "三重區",
                "type": "日間服務機構",
                "phone": "(02)29741010"
            },
            "geometry": {
                "type": "Point",
                "coordinates": [
                    121.4986211,
                    25.0636157
                ]
            }
        },
        {
            "type": "Feature",
            "properties": {
                "index": "32",
                "name": "林口社宅日間照顧中心A13",
                "address": "新北市林口區文化一路1段188-3號",
                "city": "新北市",
                "district": "林口區",
                "type": "日間服務機構",
                "phone": "(02)89797639"
            },
            "geometry": {
                "type": "Point",
                "coordinates": [
                    121.3760634,
                    25.0748635
                ]
            }
        },
        {
            "type": "Feature",
            "properties": {
                "index": "33",
                "name": "林口社宅日間照顧中心B14",
                "address": "新北市林口區文化一路1段190巷2-1號",
                "city": "新北市",
                "district": "林口區",
                "type": "日間服務機構",
                "phone": "(02)89788979"
            },
            "geometry": {
                "type": "Point",
                "coordinates": [
                    121.3765373,
                    25.0749969
                ]
            }
        },
        {
            "type": "Feature",
            "properties": {
                "index": "34",
                "name": "新店央北日間照顧中心",
                "address": "新北市新店區中山路135號1樓",
                "city": "新北市",
                "district": "新店區",
                "type": "日間服務機構",
                "phone": "(02)22180179"
            },
            "geometry": {
                "type": "Point",
                "coordinates": [
                    121.5236284,
                    24.9811615
                ]
            }
        },
        {
            "type": "Feature",
            "properties": {
                "index": "35",
                "name": "中和民德日間照顧中心",
                "address": "新北市中和區民德路398號1樓",
                "city": "新北市",
                "district": "中和區",
                "type": "日間服務機構",
                "phone": "(02)29520667"
            },
            "geometry": {
                "type": "Point",
                "coordinates": [
                    121.4632297,
                    24.9935943
                ]
            }
        },
        {
            "type": "Feature",
            "properties": {
                "index": "36",
                "name": "新店中正日間照顧中心",
                "address": "新北市新店區中正路263巷16號5樓",
                "city": "新北市",
                "district": "新店區",
                "type": "日間服務機構",
                "phone": "(02)29113021"
            },
            "geometry": {
                "type": "Point",
                "coordinates": [
                    121.5354111,
                    24.9728789
                ]
            }
        },
        {
            "type": "Feature",
            "properties": {
                "index": "37",
                "name": "新店中正障礙者日間照顧中心",
                "address": "新北市新店區中正路263巷16號4樓",
                "city": "新北市",
                "district": "新店區",
                "type": "日間服務機構",
                "phone": "(02)29113067"
            },
            "geometry": {
                "type": "Point",
                "coordinates": [
                    121.5354111,
                    24.9728789
                ]
            }
        },
        {
            "type": "Feature",
            "properties": {
                "index": "38",
                "name": "新北市立八里愛心教養院",
                "address": "新北市八里區華富山37號",
                "city": "新北市",
                "district": "八里區",
                "type": "福利服務中心",
                "phone": "(02)26106677"
            },
            "geometry": {
                "type": "Point",
                "coordinates": [
                    121.412325,
                    25.1430053
                ]
            }
        },
        {
            "type": "Feature",
            "properties": {
                "index": "39",
                "name": "新北市立八里愛心教養院附設三峽日間托育中心",
                "address": "新北市三峽區光明路71號7樓",
                "city": "新北市",
                "district": "三峽區",
                "type": "福利服務中心",
                "phone": "(02)26733523"
            },
            "geometry": {
                "type": "Point",
                "coordinates": [
                    121.373597,
                    24.9283922
                ]
            }
        },
        {
            "type": "Feature",
            "properties": {
                "index": "40",
                "name": "新北市立八里愛心教養院附設三重日間托育中心",
                "address": "新北市三重區光復路1段76號",
                "city": "新北市",
                "district": "三重區",
                "type": "福利服務中心",
                "phone": "(02)85124112"
            },
            "geometry": {
                "type": "Point",
                "coordinates": [
                    121.4693042,
                    25.0500109
                ]
            }
        },
        {
            "type": "Feature",
            "properties": {
                "index": "41",
                "name": "新北市政府社會局委託財團法人天主教光仁社會福利基金會辦理新北市聖心兒童發展中心",
                "address": "新北市三重區溪尾街73號1樓",
                "city": "新北市",
                "district": "三重區",
                "type": "福利服務中心",
                "phone": "(02)29828424"
            },
            "geometry": {
                "type": "Point",
                "coordinates": [
                    121.4882561,
                    25.0778982
                ]
            }
        },
        {
            "type": "Feature",
            "properties": {
                "index": "42",
                "name": "新北市政府社會局委託社團法人新北市自閉症服務協進會辦理新北市自閉症潛能發展中心",
                "address": "新北市三重區溪尾街73號1樓",
                "city": "新北市",
                "district": "三重區",
                "type": "福利服務中心",
                "phone": "(02)29849055"
            },
            "geometry": {
                "type": "Point",
                "coordinates": [
                    121.4882561,
                    25.0778982
                ]
            }
        },
        {
            "type": "Feature",
            "properties": {
                "index": "43",
                "name": "新北市政府委託財團法人第一社會福利基金會辦理新北市愛智發展中心",
                "address": "新北市板橋區中正路10號1樓",
                "city": "新北市",
                "district": "板橋區",
                "type": "福利服務中心",
                "phone": "(02)29688525"
            },
            "geometry": {
                "type": "Point",
                "coordinates": [
                    121.4540267,
                    25.0142286
                ]
            }
        },
        {
            "type": "Feature",
            "properties": {
                "index": "44",
                "name": "新北市政府社會局委託財團法人第一社會福利基金會辦理新北市愛立發展中心",
                "address": "新北市板橋區廣權路130號4樓",
                "city": "新北市",
                "district": "板橋區",
                "type": "福利服務中心",
                "phone": "(02)29541149"
            },
            "geometry": {
                "type": "Point",
                "coordinates": [
                    121.4629761,
                    24.993075
                ]
            }
        },
        {
            "type": "Feature",
            "properties": {
                "index": "45",
                "name": "新北市政府社會局委託財團法人心路社會福利基金會辦理新北市愛兒兒童發展中心",
                "address": "新北市新店區中正路263巷16號1樓",
                "city": "新北市",
                "district": "新店區",
                "type": "福利服務中心",
                "phone": "(02)29156786"
            },
            "geometry": {
                "type": "Point",
                "coordinates": [
                    121.5354111,
                    24.9728789
                ]
            }
        },
        {
            "type": "Feature",
            "properties": {
                "index": "46",
                "name": "新北市政府社會局委託財團法人中華民國唐氏症基金會辦理新北市愛樂發展中心",
                "address": "新北市五股區五權路7巷6號1、2樓",
                "city": "新北市",
                "district": "五股區",
                "type": "福利服務中心",
                "phone": "(02)22997222"
            },
            "geometry": {
                "type": "Point",
                "coordinates": [
                    121.4458488,
                    25.0651613
                ]
            }
        },
        {
            "type": "Feature",
            "properties": {
                "index": "47",
                "name": "新北市政府社會局委託財團法人中華民國唐氏症基金會辦理新北市愛家發展中心",
                "address": "新北市泰山區明志路一段205號2樓之2",
                "city": "新北市",
                "district": "泰山區",
                "type": "福利服務中心",
                "phone": "(02)29003553"
            },
            "geometry": {
                "type": "Point",
                "coordinates": [
                    121.430088,
                    25.0612873
                ]
            }
        },
        {
            "type": "Feature",
            "properties": {
                "index": "48",
                "name": "財團法人新北市私立明新兒童發展中心",
                "address": "新北市中和區圓通路296巷31弄1號",
                "city": "新北市",
                "district": "中和區",
                "type": "福利服務中心",
                "phone": "(02)22473769"
            },
            "geometry": {
                "type": "Point",
                "coordinates": [
                    121.4885287,
                    24.990421
                ]
            }
        },
        {
            "type": "Feature",
            "properties": {
                "index": "49",
                "name": "財團法人第一社會福利基金會附設新北市私立中和發展中心",
                "address": "新北市中和區建一路150號2樓之2、2樓之3",
                "city": "新北市",
                "district": "中和區",
                "type": "福利服務中心",
                "phone": "(02)82263522"
            },
            "geometry": {
                "type": "Point",
                "coordinates": [
                    121.4782289,
                    24.9904206
                ]
            }
        },
        {
            "type": "Feature",
            "properties": {
                "index": "50",
                "name": "財團法人台灣兒童暨家庭扶助基金會附設新北市私立家扶發展學園",
                "address": "新北市板橋區四川路二段245巷119號",
                "city": "新北市",
                "district": "板橋區",
                "type": "福利服務中心",
                "phone": "(02)89662926"
            },
            "geometry": {
                "type": "Point",
                "coordinates": [
                    121.4505642,
                    24.992763
                ]
            }
        },
        {
            "type": "Feature",
            "properties": {
                "index": "51",
                "name": "新北市政府社會局委託財團法人育成社會福利基金會辦理新北市愛育發展中心",
                "address": "新北市淡水區沙崙路300號2~3樓",
                "city": "新北市",
                "district": "淡水區",
                "type": "福利服務中心",
                "phone": "(02)28053791"
            },
            "geometry": {
                "type": "Point",
                "coordinates": [
                    121.4251489,
                    25.1869838
                ]
            }
        },
        {
            "type": "Feature",
            "properties": {
                "index": "52",
                "name": "新北市政府委託財團法人伊甸社會福利基金會辦理新北市愛德養護中心",
                "address": "新北市淡水區沙崙路300號4~6樓",
                "city": "新北市",
                "district": "淡水區",
                "type": "福利服務中心",
                "phone": "(02)28057964"
            },
            "geometry": {
                "type": "Point",
                "coordinates": [
                    121.4251489,
                    25.1869838
                ]
            }
        },
        {
            "type": "Feature",
            "properties": {
                "index": "53",
                "name": "新北市政府社會局委託財團法人伊甸社會福利基金會辦理新北市愛滬發展中心",
                "address": "新北市淡水區沙崙路300號9樓",
                "city": "新北市",
                "district": "淡水區",
                "type": "福利服務中心",
                "phone": "(02)28052056"
            },
            "geometry": {
                "type": "Point",
                "coordinates": [
                    121.4251489,
                    25.1869838
                ]
            }
        },
        {
            "type": "Feature",
            "properties": {
                "index": "54",
                "name": "新北市政府社會局委託天主教耕莘醫療財團法人永和耕莘醫院辦理新北市愛維養護中心",
                "address": "新北市八里區華富山35號",
                "city": "新北市",
                "district": "八里區",
                "type": "福利服務中心",
                "phone": "(02)86304104"
            },
            "geometry": {
                "type": "Point",
                "coordinates": [
                    121.4138656,
                    25.1392833
                ]
            }
        },
        {
            "type": "Feature",
            "properties": {
                "index": "55",
                "name": "新北市政府社會局委託財團法人第一社會福利基金會辦理新北市愛新發展中心",
                "address": "新北市三重區光復路二段122號",
                "city": "新北市",
                "district": "三重區",
                "type": "福利服務中心",
                "phone": "(02)29990258"
            },
            "geometry": {
                "type": "Point",
                "coordinates": [
                    121.4691065,
                    25.0588153
                ]
            }
        },
        {
            "type": "Feature",
            "properties": {
                "index": "56",
                "name": "新北市政府社會局委託財團法人心路社會福利基金會辦理新北市愛重服務中心",
                "address": "新北市三重區光復路二段126巷2號",
                "city": "新北市",
                "district": "三重區",
                "type": "福利服務中心",
                "phone": "(02)85122278"
            },
            "geometry": {
                "type": "Point",
                "coordinates": [
                    121.4686049,
                    25.0588066
                ]
            }
        },
        {
            "type": "Feature",
            "properties": {
                "index": "57",
                "name": "新北市政府社會局委託財團法人伊甸社會福利基金會辦理新北市愛悅養護中心",
                "address": "新北市三重區光復路二段126巷6號",
                "city": "新北市",
                "district": "三重區",
                "type": "福利服務中心",
                "phone": "(02)22789525"
            },
            "geometry": {
                "type": "Point",
                "coordinates": [
                    121.468427,
                    25.0586855
                ]
            }
        },
        {
            "type": "Feature",
            "properties": {
                "index": "58",
                "name": "財團法人台灣省私立佛教懷仁社會福利慈善事業基金會附設新北市私立佛教中道淨苑",
                "address": "新北市樹林區學成路683號1~2樓",
                "city": "新北市",
                "district": "樹林區",
                "type": "福利服務中心",
                "phone": "(02)89701988"
            },
            "geometry": {
                "type": "Point",
                "coordinates": [
                    121.3803025,
                    24.9465678
                ]
            }
        },
        {
            "type": "Feature",
            "properties": {
                "index": "59",
                "name": "財團法人新北市私立樂山園社會福利慈善事業基金會附設樂山教養院",
                "address": "新北市八里區中華路三段187號",
                "city": "新北市",
                "district": "八里區",
                "type": "福利服務中心",
                "phone": "(02)26101643"
            },
            "geometry": {
                "type": "Point",
                "coordinates": [
                    121.3908759,
                    25.1287052
                ]
            }
        },
        {
            "type": "Feature",
            "properties": {
                "index": "60",
                "name": "財團法人中華啟能基金會附設春暉啟能中心",
                "address": "新北市三峽區大埔路220號",
                "city": "新北市",
                "district": "三峽區",
                "type": "福利服務中心",
                "phone": "(02)26713001"
            },
            "geometry": {
                "type": "Point",
                "coordinates": [
                    121.3706063,
                    24.8926504
                ]
            }
        },
        {
            "type": "Feature",
            "properties": {
                "index": "61",
                "name": "財團法人創世社會福利基金會附設新北市私立板橋創世清寒植物人安養院",
                "address": "新北市板橋區四川路2段16巷10號3樓",
                "city": "新北市",
                "district": "板橋區",
                "type": "福利服務中心",
                "phone": "(02)89664306"
            },
            "geometry": {
                "type": "Point",
                "coordinates": [
                    121.4536951,
                    24.997261
                ]
            }
        },
        {
            "type": "Feature",
            "properties": {
                "index": "62",
                "name": "財團法人創世社會福利基金會附設新北市私立新店創世清寒植物人安養院",
                "address": "新北市新店區中正路493號3樓",
                "city": "新北市",
                "district": "新店區",
                "type": "福利服務中心",
                "phone": "(02)86676515"
            },
            "geometry": {
                "type": "Point",
                "coordinates": [
                    121.5335998,
                    24.9828188
                ]
            }
        },
        {
            "type": "Feature",
            "properties": {
                "index": "63",
                "name": "新北市政府社會局委託台北市康復之友協會辦理新北市慈芳關懷中心",
                "address": "新北市土城區中正路18號6樓",
                "city": "新北市",
                "district": "土城區",
                "type": "福利服務中心",
                "phone": "(02)82621305"
            },
            "geometry": {
                "type": "Point",
                "coordinates": [
                    121.4404391,
                    24.974946
                ]
            }
        },
        {
            "type": "Feature",
            "properties": {
                "index": "64",
                "name": "新北市政府社會局委託財團法人伊甸社會福利基金會辦理新北市愛明發展中心",
                "address": "新北市板橋區廣權路130號3樓",
                "city": "新北市",
                "district": "板橋區",
                "type": "福利服務中心",
                "phone": "(02)29636866"
            },
            "geometry": {
                "type": "Point",
                "coordinates": [
                    121.4629761,
                    24.993075
                ]
            }
        },
        {
            "type": "Feature",
            "properties": {
                "index": "65",
                "name": "財團法人伊甸社會福利基金會附設新北市三峽身心障礙福利服務中心",
                "address": "新北市三峽區國光街12巷10號",
                "city": "新北市",
                "district": "三峽區",
                "type": "福利服務中心",
                "phone": "(02)26741778"
            },
            "geometry": {
                "type": "Point",
                "coordinates": [
                    121.3735111,
                    24.9371699
                ]
            }
        },
        {
            "type": "Feature",
            "properties": {
                "index": "66",
                "name": "臺北市政府社會局委託財團法人第一社會福利基金會辦理崇愛發展中心",
                "address": "新北市中和區圓通路143之1號",
                "city": "新北市",
                "district": "中和區",
                "type": "福利服務中心",
                "phone": "(02)22460820"
            },
            "geometry": {
                "type": "Point",
                "coordinates": [
                    121.4957248,
                    24.9954371
                ]
            }
        }
    ]
}

