{
"type": "FeatureCollection",
"name": "taipei_parking_accessibility_updated",
"crs": { "type": "name", "properties": { "name": "urn:ogc:def:crs:OGC:1.3:CRS84" } },
"features": [
{ "type": "Feature", "properties": { "行政區": "士林區", "停車場名稱": "百齡高中地下停車場", "地址": "臺北市士林區承德路4段175號地下", "身心障礙汽車格位統計數值": 5, "身心障礙機車格位統計數值": null, "無障礙電梯": "無", "無障礙廁所": "有", "無障礙樓梯扶手": "有" }, "geometry": { "type": "Point", "coordinates": [ 121.5236968, 25.0858255 ] } },
{ "type": "Feature", "properties": { "行政區": "士林區", "停車場名稱": "前港公園地下停車場", "地址": "臺北市士林區前港街45號地下", "身心障礙汽車格位統計數值": 11, "身心障礙機車格位統計數值": null, "無障礙電梯": "有", "無障礙廁所": "有", "無障礙樓梯扶手": "有" }, "geometry": { "type": "Point", "coordinates": [ 121.520322826389602, 25.085051650517158 ] } },
{ "type": "Feature", "properties": { "行政區": "士林區", "停車場名稱": "文昌國小地下停車場", "地址": "臺北市士林區文林路615巷20號地下", "身心障礙汽車格位統計數值": 5, "身心障礙機車格位統計數值": 6.0, "無障礙電梯": "有", "無障礙廁所": "有", "無障礙樓梯扶手": "有" }, "geometry": { "type": "Point", "coordinates": [ 121.520905222625558, 25.099616180052731 ] } },
{ "type": "Feature", "properties": { "行政區": "士林區", "停車場名稱": "海光公園地下停車場", "地址": "臺北市士林區葫蘆街83號地下", "身心障礙汽車格位統計數值": 2, "身心障礙機車格位統計數值": null, "無障礙電梯": "有", "無障礙廁所": "有", "無障礙樓梯扶手": "有" }, "geometry": { "type": "Point", "coordinates": [ 121.508319368609236, 25.081321459837717 ] } },
{ "type": "Feature", "properties": { "行政區": "士林區", "停車場名稱": "社子國小地下停車場", "地址": "臺北市士林區延平北路6段308號地下", "身心障礙汽車格位統計數值": 10, "身心障礙機車格位統計數值": 5.0, "無障礙電梯": "有", "無障礙廁所": "有", "無障礙樓梯扶手": "有" }, "geometry": { "type": "Point", "coordinates": [ 121.502942453708414, 25.089802920928385 ] } },
{ "type": "Feature", "properties": { "行政區": "士林區", "停車場名稱": "承德公園地下停車場", "地址": "臺北市士林區基河路150號地下", "身心障礙汽車格位統計數值": 6, "身心障礙機車格位統計數值": 2.0, "無障礙電梯": "有", "無障礙廁所": "有", "無障礙樓梯扶手": "有" }, "geometry": { "type": "Point", "coordinates": [ 121.522256505125654, 25.089929340352107 ] } },
{ "type": "Feature", "properties": { "行政區": "士林區", "停車場名稱": "蘭雅公園地下停車場", "地址": "臺北市士林區德行東路129巷31號地下", "身心障礙汽車格位統計數值": 4, "身心障礙機車格位統計數值": null, "無障礙電梯": "有", "無障礙廁所": "有", "無障礙樓梯扶手": "有" }, "geometry": { "type": "Point", "coordinates": [ 121.529246343570563, 25.109589143731725 ] } },
{ "type": "Feature", "properties": { "行政區": "士林區", "停車場名稱": "福林公園地下停車場", "地址": "臺北市士林區中正路17號地下", "身心障礙汽車格位統計數值": 5, "身心障礙機車格位統計數值": 2.0, "無障礙電梯": "有", "無障礙廁所": "有", "無障礙樓梯扶手": "有" }, "geometry": { "type": "Point", "coordinates": [ 121.530524602723716, 25.095856062831203 ] } },
{ "type": "Feature", "properties": { "行政區": "大同區", "停車場名稱": "塔城公園地下停車場", "地址": "臺北市大同區塔城街11號地下", "身心障礙汽車格位統計數值": 4, "身心障礙機車格位統計數值": null, "無障礙電梯": "有", "無障礙廁所": "有", "無障礙樓梯扶手": "有" }, "geometry": { "type": "Point", "coordinates": [ 121.510620037899827, 25.050867674545721 ] } },
{ "type": "Feature", "properties": { "行政區": "大同區", "停車場名稱": "市民大道(塔城段)", "地址": "臺北市大同區西寧北路-塔城街(地下)", "身心障礙汽車格位統計數值": 11, "身心障礙機車格位統計數值": null, "無障礙電梯": "無", "無障礙廁所": "有", "無障礙樓梯扶手": "有" }, "geometry": { "type": "Point", "coordinates": [ 121.5097932, 25.0503962 ] } },
{ "type": "Feature", "properties": { "行政區": "大同區", "停車場名稱": "大稻埕公園地下停車場", "地址": "臺北市大同區歸綏街243號地下", "身心障礙汽車格位統計數值": 5, "身心障礙機車格位統計數值": null, "無障礙電梯": "有", "無障礙廁所": "有", "無障礙樓梯扶手": "有" }, "geometry": { "type": "Point", "coordinates": [ 121.510581624765351, 25.058355600863706 ] } },
{ "type": "Feature", "properties": { "行政區": "大同區", "停車場名稱": "成淵高中地下停車場", "地址": "臺北市大同區承德路2段235號之1地下", "身心障礙汽車格位統計數值": 6, "身心障礙機車格位統計數值": null, "無障礙電梯": "無", "無障礙廁所": "有", "無障礙樓梯扶手": "有" }, "geometry": { "type": "Point", "coordinates": [ 121.5200647, 25.0603782 ] } },
{ "type": "Feature", "properties": { "行政區": "大同區", "停車場名稱": "建成國中地下停車場", "地址": "臺北市大同區長安西路37號之一地下", "身心障礙汽車格位統計數值": 7, "身心障礙機車格位統計數值": 3.0, "無障礙電梯": "有", "無障礙廁所": "有", "無障礙樓梯扶手": "有" }, "geometry": { "type": "Point", "coordinates": [ 121.51969731949022, 25.050367175491271 ] } },
{ "type": "Feature", "properties": { "行政區": "大同區", "停車場名稱": "朝陽公園地下停車場", "地址": "臺北市大同區重慶北路2段68號地下", "身心障礙汽車格位統計數值": 5, "身心障礙機車格位統計數值": null, "無障礙電梯": "有", "無障礙廁所": "有", "無障礙樓梯扶手": "有" }, "geometry": { "type": "Point", "coordinates": [ 121.513711916404617, 25.056143082996815 ] } },
{ "type": "Feature", "properties": { "行政區": "大同區", "停車場名稱": "蓬萊國小地下停車場", "地址": "臺北市大同區寧夏路35號地下", "身心障礙汽車格位統計數值": 6, "身心障礙機車格位統計數值": 3.0, "無障礙電梯": "有", "無障礙廁所": "有", "無障礙樓梯扶手": "有" }, "geometry": { "type": "Point", "coordinates": [ 121.51556812030833, 25.056533633587538 ] } },
{ "type": "Feature", "properties": { "行政區": "大同區", "停車場名稱": "建成公園地下停車場", "地址": "臺北市大同區承德路2段31號地下", "身心障礙汽車格位統計數值": 6, "身心障礙機車格位統計數值": 4.0, "無障礙電梯": "有", "無障礙廁所": "有", "無障礙樓梯扶手": "有" }, "geometry": { "type": "Point", "coordinates": [ 121.518254209242201, 25.053931122971719 ] } },
{ "type": "Feature", "properties": { "行政區": "大同區", "停車場名稱": "大龍國小地下停車場", "地址": "臺北市大同區哈密街47號地下", "身心障礙汽車格位統計數值": 6, "身心障礙機車格位統計數值": 3.0, "無障礙電梯": "有", "無障礙廁所": "有", "無障礙樓梯扶手": "有" }, "geometry": { "type": "Point", "coordinates": [ 121.516720639064687, 25.073404791296216 ] } },
{ "type": "Feature", "properties": { "行政區": "大同區", "停車場名稱": "啟聰學校地下停車場", "地址": "臺北市大同區延平北路4段205號", "身心障礙汽車格位統計數值": 4, "身心障礙機車格位統計數值": 4.0, "無障礙電梯": "有", "無障礙廁所": "有", "無障礙樓梯扶手": "有" }, "geometry": { "type": "Point", "coordinates": [ 121.511746766066196, 25.074299052607369 ] } },
{ "type": "Feature", "properties": { "行政區": "大同區", "停車場名稱": "揚雅立體停車場(機械)", "地址": "臺北市大同區大龍街136號", "身心障礙汽車格位統計數值": 5, "身心障礙機車格位統計數值": null, "無障礙電梯": "無", "無障礙廁所": "有", "無障礙樓梯扶手": "有" }, "geometry": { "type": "Point", "coordinates": [ 121.5158333, 25.0674304 ] } },
{ "type": "Feature", "properties": { "行政區": "大安區", "停車場名稱": "大安森林公園地下停車場", "地址": "臺北市大安區建國南路2段2號地下", "身心障礙汽車格位統計數值": 27, "身心障礙機車格位統計數值": 8.0, "無障礙電梯": "有", "無障礙廁所": "有", "無障礙樓梯扶手": "有" }, "geometry": { "type": "Point", "coordinates": [ 121.537325336852803, 25.031983446391401 ] } },
{ "type": "Feature", "properties": { "行政區": "大安區", "停車場名稱": "金華地下停車場", "地址": "臺北市大安區金華街254巷1號地下", "身心障礙汽車格位統計數值": 4, "身心障礙機車格位統計數值": null, "無障礙電梯": "有", "無障礙廁所": "有", "無障礙樓梯扶手": "有" }, "geometry": { "type": "Point", "coordinates": [ 121.531414901089278, 25.030065769720157 ] } },
{ "type": "Feature", "properties": { "行政區": "大安區", "停車場名稱": "大安高工地下停車場", "地址": "臺北市大安區信義路3段166巷6弄12號", "身心障礙汽車格位統計數值": 11, "身心障礙機車格位統計數值": null, "無障礙電梯": "有", "無障礙廁所": "有", "無障礙樓梯扶手": "有" }, "geometry": { "type": "Point", "coordinates": [ 121.541054954062332, 25.032728599602937 ] } },
{ "type": "Feature", "properties": { "行政區": "大安區", "停車場名稱": "附中公園地下停車場", "地址": "臺北市大安區復興南路1段340巷11號", "身心障礙汽車格位統計數值": 2, "身心障礙機車格位統計數值": null, "無障礙電梯": "有", "無障礙廁所": "有", "無障礙樓梯扶手": "有" }, "geometry": { "type": "Point", "coordinates": [ 121.542455110491233, 25.036334898885659 ] } },
{ "type": "Feature", "properties": { "行政區": "大安區", "停車場名稱": "龍門國中地下停車場", "地址": "臺北市大安區建國南路2段269號地下", "身心障礙汽車格位統計數值": 16, "身心障礙機車格位統計數值": 8.0, "無障礙電梯": "有", "無障礙廁所": "有", "無障礙樓梯扶手": "有" }, "geometry": { "type": "Point", "coordinates": [ 121.538030411776987, 25.024899974385953 ] } },
{ "type": "Feature", "properties": { "行政區": "大安區", "停車場名稱": "僑安地下停車場", "地址": "臺北市大安區忠孝東路4段306號地下", "身心障礙汽車格位統計數值": 10, "身心障礙機車格位統計數值": null, "無障礙電梯": "有", "無障礙廁所": "有", "無障礙樓梯扶手": "有" }, "geometry": { "type": "Point", "coordinates": [ 121.556837104715726, 25.041140163033859 ] } },
{ "type": "Feature", "properties": { "行政區": "大安區", "停車場名稱": "嘉興公園地下停車場", "地址": "臺北市大安區嘉興街373號", "身心障礙汽車格位統計數值": 4, "身心障礙機車格位統計數值": 2.0, "無障礙電梯": "有", "無障礙廁所": "有", "無障礙樓梯扶手": "有" }, "geometry": { "type": "Point", "coordinates": [ 121.551888715863072, 25.021753593565307 ] } },
{ "type": "Feature", "properties": { "行政區": "中山區", "停車場名稱": "市民大道(林金段)", "地址": "臺北市中山區林森北路-金山北路", "身心障礙汽車格位統計數值": 20, "身心障礙機車格位統計數值": null, "無障礙電梯": "無", "無障礙廁所": "有", "無障礙樓梯扶手": "有" }, "geometry": { "type": "Point", "coordinates": [ 121.5255722, 25.0476593 ] } },
{ "type": "Feature", "properties": { "行政區": "中山區", "停車場名稱": "林森公園停車場", "地址": "臺北市中山區南京東路1段35號地下", "身心障礙汽車格位統計數值": 17, "身心障礙機車格位統計數值": null, "無障礙電梯": "有", "無障礙廁所": "有", "無障礙樓梯扶手": "有" }, "geometry": { "type": "Point", "coordinates": [ 121.526940782813824, 25.053073705080376 ] } },
{ "type": "Feature", "properties": { "行政區": "中山區", "停車場名稱": "市民大道(中林段)", "地址": "臺北市中山區中山北路-林森北路", "身心障礙汽車格位統計數值": 10, "身心障礙機車格位統計數值": null, "無障礙電梯": "無", "無障礙廁所": "有", "無障礙樓梯扶手": "有" }, "geometry": { "type": "Point", "coordinates": [ 121.5237131, 25.0478076 ] } },
{ "type": "Feature", "properties": { "行政區": "中山區", "停車場名稱": "市民大道(公中段)", "地址": "臺北市中山區公園路-中山北路(地下)", "身心障礙汽車格位統計數值": 4, "身心障礙機車格位統計數值": null, "無障礙電梯": "無", "無障礙廁所": "有", "無障礙樓梯扶手": "有" }, "geometry": { "type": "Point", "coordinates": [ 121.5218477, 25.0480912 ] } },
{ "type": "Feature", "properties": { "行政區": "中山區", "停車場名稱": "市民大道(建復段)", "地址": "臺北市中山區建國北路-復興北路", "身心障礙汽車格位統計數值": 4, "身心障礙機車格位統計數值": null, "無障礙電梯": "無", "無障礙廁所": "有", "無障礙樓梯扶手": "有" }, "geometry": { "type": "Point", "coordinates": [ 121.5439188, 25.0447858 ] } },
{ "type": "Feature", "properties": { "行政區": "中山區", "停車場名稱": "進安公園地下停車場", "地址": "臺北市中山區八德路2段158號地下", "身心障礙汽車格位統計數值": 3, "身心障礙機車格位統計數值": null, "無障礙電梯": "有", "無障礙廁所": "有", "無障礙樓梯扶手": "有" }, "geometry": { "type": "Point", "coordinates": [ 121.537605784775735, 25.046066351993023 ] } },
{ "type": "Feature", "properties": { "行政區": "中山區", "停車場名稱": "濱江市場地下停車場", "地址": "臺北市中山區民族東路336號地下", "身心障礙汽車格位統計數值": 4, "身心障礙機車格位統計數值": null, "無障礙電梯": "有", "無障礙廁所": "有", "無障礙樓梯扶手": "有" }, "geometry": { "type": "Point", "coordinates": [ 121.537341262704416, 25.0679233504504 ] } },
{ "type": "Feature", "properties": { "行政區": "中山區", "停車場名稱": "永盛公園地下停車場", "地址": "臺北市中山區中山北路2段93巷30號", "身心障礙汽車格位統計數值": 5, "身心障礙機車格位統計數值": 1.0, "無障礙電梯": "有", "無障礙廁所": "有", "無障礙樓梯扶手": "有" }, "geometry": { "type": "Point", "coordinates": [ 121.524517555484451, 25.059258267596817 ] } },
{ "type": "Feature", "properties": { "行政區": "中山區", "停車場名稱": "長安國小地下停車場", "地址": "臺北市中山區吉林路15號地下", "身心障礙汽車格位統計數值": 6, "身心障礙機車格位統計數值": 2.0, "無障礙電梯": "有", "無障礙廁所": "有", "無障礙樓梯扶手": "有" }, "geometry": { "type": "Point", "coordinates": [ 121.530183325463554, 25.049759282654311 ] } },
{ "type": "Feature", "properties": { "行政區": "中山區", "停車場名稱": "榮星花園地下停車場", "地址": "臺北市中山區建國北路3段39號地下", "身心障礙汽車格位統計數值": 5, "身心障礙機車格位統計數值": 2.0, "無障礙電梯": "有", "無障礙廁所": "有", "無障礙樓梯扶手": "有" }, "geometry": { "type": "Point", "coordinates": [ 121.537613145840879, 25.06391404011816 ] } },
{ "type": "Feature", "properties": { "行政區": "中正區", "停車場名稱": "中山堂地下停車場", "地址": "臺北市中正區延平南路98號地下", "身心障礙汽車格位統計數值": 9, "身心障礙機車格位統計數值": null, "無障礙電梯": "無", "無障礙廁所": "有", "無障礙樓梯扶手": "有" }, "geometry": { "type": "Point", "coordinates": [ 121.5105798, 25.0440657 ] } },
{ "type": "Feature", "properties": { "行政區": "內湖區", "停車場名稱": "東湖國小地下停車場", "地址": "臺北市內湖區東湖路115號地下", "身心障礙汽車格位統計數值": 7, "身心障礙機車格位統計數值": 2.0, "無障礙電梯": "有", "無障礙廁所": "有", "無障礙樓梯扶手": "有" }, "geometry": { "type": "Point", "coordinates": [ 121.615782117936647, 25.068540214075988 ] } },
{ "type": "Feature", "properties": { "行政區": "內湖區", "停車場名稱": "麗湖國小地下停車場", "地址": "臺北市內湖區金湖路363巷8號地下", "身心障礙汽車格位統計數值": 6, "身心障礙機車格位統計數值": null, "無障礙電梯": "有", "無障礙廁所": "有", "無障礙樓梯扶手": "有" }, "geometry": { "type": "Point", "coordinates": [ 121.601278348509894, 25.073074541971017 ] } },
{ "type": "Feature", "properties": { "行政區": "內湖區", "停車場名稱": "港富立體(機械)", "地址": "臺北市內湖區內湖路1段737巷50弄32號", "身心障礙汽車格位統計數值": 5, "身心障礙機車格位統計數值": null, "無障礙電梯": "無", "無障礙廁所": "有", "無障礙樓梯扶手": "有" }, "geometry": { "type": "Point", "coordinates": [ 121.5783648, 25.080523 ] } },
{ "type": "Feature", "properties": { "行政區": "內湖區", "停車場名稱": "康樂立體(機械)", "地址": "臺北市內湖區康樂路138號", "身心障礙汽車格位統計數值": 3, "身心障礙機車格位統計數值": null, "無障礙電梯": "無", "無障礙廁所": "有", "無障礙樓梯扶手": "有" }, "geometry": { "type": "Point", "coordinates": [ 121.6191382, 25.0719706 ] } },
{ "type": "Feature", "properties": { "行政區": "內湖區", "停車場名稱": "湖興立體(機械)", "地址": "臺北市內湖區成功路2段322號", "身心障礙汽車格位統計數值": 5, "身心障礙機車格位統計數值": null, "無障礙電梯": "無", "無障礙廁所": "有", "無障礙樓梯扶手": "有" }, "geometry": { "type": "Point", "coordinates": [ 121.5905632, 25.0678398 ] } },
{ "type": "Feature", "properties": { "行政區": "內湖區", "停車場名稱": "洲子立體停車場", "地址": "臺北市內湖區瑞光路513巷22弄2號", "身心障礙汽車格位統計數值": 8, "身心障礙機車格位統計數值": null, "無障礙電梯": "有", "無障礙廁所": "有", "無障礙樓梯扶手": "有" }, "geometry": { "type": "Point", "coordinates": [ 121.569547763457862, 25.079457942511599 ] } },
{ "type": "Feature", "properties": { "行政區": "內湖區", "停車場名稱": "西湖公園地下停車場", "地址": "臺北市內湖區內湖路1段387巷38號地下", "身心障礙汽車格位統計數值": 4, "身心障礙機車格位統計數值": null, "無障礙電梯": "有", "無障礙廁所": "有", "無障礙樓梯扶手": "有" }, "geometry": { "type": "Point", "coordinates": [ 121.570391992595205, 25.083664319030788 ] } },
{ "type": "Feature", "properties": { "行政區": "內湖區", "停車場名稱": "大湖公園地下停車場", "地址": "臺北市內湖區成功路5段7號地下", "身心障礙汽車格位統計數值": 5, "身心障礙機車格位統計數值": 2.0, "無障礙電梯": "有", "無障礙廁所": "有", "無障礙樓梯扶手": "有" }, "geometry": { "type": "Point", "coordinates": [ 121.6023605218885, 25.083450816546339 ] } },
{ "type": "Feature", "properties": { "行政區": "內湖區", "停車場名稱": "西康地下停車場", "地址": "臺北市內湖區內湖路1段203巷25號地下", "身心障礙汽車格位統計數值": 2, "身心障礙機車格位統計數值": null, "無障礙電梯": "有", "無障礙廁所": "有", "無障礙樓梯扶手": "有" }, "geometry": { "type": "Point", "coordinates": [ 121.563751984500087, 25.084720509262915 ] } },
{ "type": "Feature", "properties": { "行政區": "內湖區", "停車場名稱": "康樂合署大樓地下停車場", "地址": "臺北市內湖區康樂街150號地下", "身心障礙汽車格位統計數值": 2, "身心障礙機車格位統計數值": 1.0, "無障礙電梯": "有", "無障礙廁所": "有", "無障礙樓梯扶手": "有" }, "geometry": { "type": "Point", "coordinates": [ 121.619241185345388, 25.072627371672432 ] } },
{ "type": "Feature", "properties": { "行政區": "文山區", "停車場名稱": "景華公園地下停車場", "地址": "臺北市文山區景華街55號地下", "身心障礙汽車格位統計數值": 15, "身心障礙機車格位統計數值": null, "無障礙電梯": "有", "無障礙廁所": "有", "無障礙樓梯扶手": "有" }, "geometry": { "type": "Point", "coordinates": [ 121.543766440895141, 24.995183544871882 ] } },
{ "type": "Feature", "properties": { "行政區": "文山區", "停車場名稱": "辛亥國小地下停車場", "地址": "臺北市文山區辛亥路4段103號地下", "身心障礙汽車格位統計數值": 4, "身心障礙機車格位統計數值": null, "無障礙電梯": "無", "無障礙廁所": "有", "無障礙樓梯扶手": "有" }, "geometry": { "type": "Point", "coordinates": [ 121.5584061, 25.0059885 ] } },
{ "type": "Feature", "properties": { "行政區": "文山區", "停車場名稱": "花木市場地下停車場", "地址": "臺北市文山區興隆路1段15號地下", "身心障礙汽車格位統計數值": 10, "身心障礙機車格位統計數值": 7.0, "無障礙電梯": "有", "無障礙廁所": "有", "無障礙樓梯扶手": "有" }, "geometry": { "type": "Point", "coordinates": [ 121.540352533095231, 25.004286372935638 ] } },
{ "type": "Feature", "properties": { "行政區": "文山區", "停車場名稱": "興隆公園地下停車場", "地址": "臺北市文山區仙岩路128號地下", "身心障礙汽車格位統計數值": 6, "身心障礙機車格位統計數值": 2.0, "無障礙電梯": "有", "無障礙廁所": "有", "無障礙樓梯扶手": "有" }, "geometry": { "type": "Point", "coordinates": [ 121.551323771085066, 25.000705449908079 ] } },
{ "type": "Feature", "properties": { "行政區": "文山區", "停車場名稱": "景美國小地下停車場", "地址": "臺北市文山區景文街142巷2號地下", "身心障礙汽車格位統計數值": 6, "身心障礙機車格位統計數值": 3.0, "無障礙電梯": "有", "無障礙廁所": "有", "無障礙樓梯扶手": "有" }, "geometry": { "type": "Point", "coordinates": [ 121.540301821473832, 24.988516062075636 ] } },
{ "type": "Feature", "properties": { "行政區": "文山區", "停車場名稱": "萬興國小地下停車場", "地址": "臺北市文山區秀明路2段116號地下", "身心障礙汽車格位統計數值": 5, "身心障礙機車格位統計數值": 4.0, "無障礙電梯": "有", "無障礙廁所": "有", "無障礙樓梯扶手": "有" }, "geometry": { "type": "Point", "coordinates": [ 121.576675697038027, 24.989609619834035 ] } },
{ "type": "Feature", "properties": { "行政區": "文山區", "停車場名稱": "永建國小地下停車場", "地址": "臺北市文山區木柵路一段311巷1號", "身心障礙汽車格位統計數值": 5, "身心障礙機車格位統計數值": 2.0, "無障礙電梯": "有", "無障礙廁所": "有", "無障礙樓梯扶手": "有" }, "geometry": { "type": "Point", "coordinates": [ 121.555880228815639, 24.989185899681509 ] } },
{ "type": "Feature", "properties": { "行政區": "文山區", "停車場名稱": "興隆公共住宅2區地下停車場", "地址": "興隆路4段105巷45號地下", "身心障礙汽車格位統計數值": 7, "身心障礙機車格位統計數值": 8.0, "無障礙電梯": "有", "無障礙廁所": "有", "無障礙樓梯扶手": "有" }, "geometry": { "type": "Point", "coordinates": [ 121.562513999363901, 24.988167228272072 ] } },
{ "type": "Feature", "properties": { "行政區": "北投區", "停車場名稱": "大豐公園地下停車場", "地址": "臺北市北投區大興街145號地下", "身心障礙汽車格位統計數值": 5, "身心障礙機車格位統計數值": null, "無障礙電梯": "有", "無障礙廁所": "有", "無障礙樓梯扶手": "有" }, "geometry": { "type": "Point", "coordinates": [ 121.504125222923122, 25.131159350962044 ] } },
{ "type": "Feature", "properties": { "行政區": "北投區", "停車場名稱": "振興公園地下停車場", "地址": "臺北市北投區天母西路112號地下", "身心障礙汽車格位統計數值": 5, "身心障礙機車格位統計數值": 2.0, "無障礙電梯": "有", "無障礙廁所": "有", "無障礙樓梯扶手": "有" }, "geometry": { "type": "Point", "coordinates": [ 121.523173147181595, 25.118794763428614 ] } },
{ "type": "Feature", "properties": { "行政區": "北投區", "停車場名稱": "石牌國小地下停車場", "地址": "臺北市北投區致遠二路1段80號地下", "身心障礙汽車格位統計數值": 10, "身心障礙機車格位統計數值": 4.0, "無障礙電梯": "有", "無障礙廁所": "有", "無障礙樓梯扶手": "有" }, "geometry": { "type": "Point", "coordinates": [ 121.511744501561765, 25.115689540762002 ] } },
{ "type": "Feature", "properties": { "行政區": "北投區", "停車場名稱": "大業立體停車場(機械)", "地址": "臺北市北投區大業路745號", "身心障礙汽車格位統計數值": 2, "身心障礙機車格位統計數值": null, "無障礙電梯": "無", "無障礙廁所": "有", "無障礙樓梯扶手": "有" }, "geometry": { "type": "Point", "coordinates": [ 121.503021, 25.1376209 ] } },
{ "type": "Feature", "properties": { "行政區": "北投區", "停車場名稱": "七星公園地下停車場", "地址": "臺北市北投區光明路225號地下", "身心障礙汽車格位統計數值": 6, "身心障礙機車格位統計數值": 3.0, "無障礙電梯": "有", "無障礙廁所": "有", "無障礙樓梯扶手": "有" }, "geometry": { "type": "Point", "coordinates": [ 121.505126361159554, 25.136118359607369 ] } },
{ "type": "Feature", "properties": { "行政區": "北投區", "停車場名稱": "立農公園地下停車場", "地址": "臺北市北投區承德路7段372號地下", "身心障礙汽車格位統計數值": 5, "身心障礙機車格位統計數值": 2.0, "無障礙電梯": "有", "無障礙廁所": "有", "無障礙樓梯扶手": "有" }, "geometry": { "type": "Point", "coordinates": [ 121.503330925608566, 25.11852020542706 ] } },
{ "type": "Feature", "properties": { "行政區": "松山區", "停車場名稱": "民權公園地下停車場", "地址": "臺北市松山區民權東路4段180號地下", "身心障礙汽車格位統計數值": 15, "身心障礙機車格位統計數值": null, "無障礙電梯": "有", "無障礙廁所": "有", "無障礙樓梯扶手": "有" }, "geometry": { "type": "Point", "coordinates": [ 121.556876069282822, 25.061825687018686 ] } },
{ "type": "Feature", "properties": { "行政區": "松山區", "停車場名稱": "民生立體停車場", "地址": "臺北市松山區民生東路5段84號", "身心障礙汽車格位統計數值": 10, "身心障礙機車格位統計數值": null, "無障礙電梯": "有", "無障礙廁所": "有", "無障礙樓梯扶手": "有" }, "geometry": { "type": "Point", "coordinates": [ 121.559479316060134, 25.058425306829829 ] } },
{ "type": "Feature", "properties": { "行政區": "松山區", "停車場名稱": "八德立體(機械)", "地址": "臺北市松山區八德路4段568號", "身心障礙汽車格位統計數值": 5, "身心障礙機車格位統計數值": null, "無障礙電梯": "無", "無障礙廁所": "有", "無障礙樓梯扶手": "有" }, "geometry": { "type": "Point", "coordinates": [ 121.42509, 25.022605 ] } },
{ "type": "Feature", "properties": { "行政區": "松山區", "停車場名稱": "西松高中地下停車場", "地址": "臺北市松山區健康路325巷19弄1號", "身心障礙汽車格位統計數值": 7, "身心障礙機車格位統計數值": null, "無障礙電梯": "無", "無障礙廁所": "有", "無障礙樓梯扶手": "有" }, "geometry": { "type": "Point", "coordinates": [ 121.5660926, 25.0558398 ] } },
{ "type": "Feature", "properties": { "行政區": "松山區", "停車場名稱": "市民大道(復敦段)", "地址": "臺北市松山區復興南路-敦化南路", "身心障礙汽車格位統計數值": 5, "身心障礙機車格位統計數值": null, "無障礙電梯": "無", "無障礙廁所": "有", "無障礙樓梯扶手": "有" }, "geometry": { "type": "Point", "coordinates": [ 121.5473897, 25.0449666 ] } },
{ "type": "Feature", "properties": { "行政區": "松山區", "停車場名稱": "市民大道(延吉段)", "地址": "臺北市松山區延吉街兩側(地下)", "身心障礙汽車格位統計數值": 2, "身心障礙機車格位統計數值": null, "無障礙電梯": "無", "無障礙廁所": "有", "無障礙樓梯扶手": "有" }, "geometry": { "type": "Point", "coordinates": [ 121.552122, 25.044458 ] } },
{ "type": "Feature", "properties": { "行政區": "松山區", "停車場名稱": "市民大道(敦延段)", "地址": "臺北市松山區敦化南路-延吉街(地下)", "身心障礙汽車格位統計數值": 5, "身心障礙機車格位統計數值": null, "無障礙電梯": "無", "無障礙廁所": "有", "無障礙樓梯扶手": "有" }, "geometry": { "type": "Point", "coordinates": [ 121.550675, 25.0447489 ] } },
{ "type": "Feature", "properties": { "行政區": "松山區", "停車場名稱": "健康國小地下停車場", "地址": "臺北市松山區延壽街168號地下", "身心障礙汽車格位統計數值": 5, "身心障礙機車格位統計數值": null, "無障礙電梯": "有", "無障礙廁所": "有", "無障礙樓梯扶手": "有" }, "geometry": { "type": "Point", "coordinates": [ 121.56292306196832, 25.056622187932977 ] } },
{ "type": "Feature", "properties": { "行政區": "松山區", "停車場名稱": "中崙高中地下停車場", "地址": "臺北市松山區八德路4段101號地下", "身心障礙汽車格位統計數值": 7, "身心障礙機車格位統計數值": null, "無障礙電梯": "有", "無障礙廁所": "有", "無障礙樓梯扶手": "有" }, "geometry": { "type": "Point", "coordinates": [ 121.56106915166103, 25.048704751674425 ] } },
{ "type": "Feature", "properties": { "行政區": "松山區", "停車場名稱": "民有市場地下停車場", "地址": "臺北市松山區民權東路3段140巷15號", "身心障礙汽車格位統計數值": 7, "身心障礙機車格位統計數值": 9.0, "無障礙電梯": "有", "無障礙廁所": "有", "無障礙樓梯扶手": "有" }, "geometry": { "type": "Point", "coordinates": [ 121.546741789803434, 25.060500671947086 ] } },
{ "type": "Feature", "properties": { "行政區": "松山區", "停車場名稱": "八德立體停車場", "地址": "臺北市松山區八德路四段580號", "身心障礙汽車格位統計數值": 8, "身心障礙機車格位統計數值": 9.0, "無障礙電梯": "有", "無障礙廁所": "有", "無障礙樓梯扶手": "有" }, "geometry": { "type": "Point", "coordinates": [ 121.571741167483495, 25.04970299718563 ] } },
{ "type": "Feature", "properties": { "行政區": "松山區", "停車場名稱": "北寧路地下停車場", "地址": "臺北市松山區八德路3段25號地下", "身心障礙汽車格位統計數值": 2, "身心障礙機車格位統計數值": null, "無障礙電梯": "無", "無障礙廁所": "有", "無障礙樓梯扶手": "有" }, "geometry": { "type": "Point", "coordinates": [ 121.5525445, 25.0491787 ] } },
{ "type": "Feature", "properties": { "行政區": "松山區", "停車場名稱": "民生社區地下停車場", "地址": "臺北市松山區民生東路5段163號之1地下", "身心障礙汽車格位統計數值": 4, "身心障礙機車格位統計數值": null, "無障礙電梯": "有", "無障礙廁所": "有", "無障礙樓梯扶手": "有" }, "geometry": { "type": "Point", "coordinates": [ 121.562587361668704, 25.05905764294209 ] } },
{ "type": "Feature", "properties": { "行政區": "松山區", "停車場名稱": "松山國小地下停車場", "地址": "臺北市松山區八德路4段746號", "身心障礙汽車格位統計數值": 10, "身心障礙機車格位統計數值": 3.0, "無障礙電梯": "有", "無障礙廁所": "有", "無障礙樓梯扶手": "有" }, "geometry": { "type": "Point", "coordinates": [ 121.579268644863461, 25.051205221079666 ] } },
{ "type": "Feature", "properties": { "行政區": "松山區", "停車場名稱": "偶戲博物館地下停車場", "地址": "臺北市松山區市民大道5段99號地下", "身心障礙汽車格位統計數值": 2, "身心障礙機車格位統計數值": 2.0, "無障礙電梯": "有", "無障礙廁所": "有", "無障礙樓梯扶手": "有" }, "geometry": { "type": "Point", "coordinates": [ 121.56148915788755, 25.047875780600407 ] } },
{ "type": "Feature", "properties": { "行政區": "信義區", "停車場名稱": "府前廣場地下停車場", "地址": "臺北市信義區松壽路1號地下                     ", "身心障礙汽車格位統計數值": 45, "身心障礙機車格位統計數值": 23.0, "無障礙電梯": "有", "無障礙廁所": "有", "無障礙樓梯扶手": "有" }, "geometry": { "type": "Point", "coordinates": [ 121.563109429805678, 25.036083230403264 ] } },
{ "type": "Feature", "properties": { "行政區": "信義區", "停車場名稱": "松壽廣場地下停車場", "地址": "臺北市信義區松智路75號地下", "身心障礙汽車格位統計數值": 9, "身心障礙機車格位統計數值": null, "無障礙電梯": "有", "無障礙廁所": "有", "無障礙樓梯扶手": "有" }, "geometry": { "type": "Point", "coordinates": [ 121.566081867669993, 25.038774710326326 ] } },
{ "type": "Feature", "properties": { "行政區": "信義區", "停車場名稱": "松山高中地下停車場", "地址": "臺北市信義區基隆路1段156號地下", "身心障礙汽車格位統計數值": 5, "身心障礙機車格位統計數值": null, "無障礙電梯": "無", "無障礙廁所": "有", "無障礙樓梯扶手": "有" }, "geometry": { "type": "Point", "coordinates": [ 121.5637821, 25.044065 ] } },
{ "type": "Feature", "properties": { "行政區": "信義區", "停車場名稱": "五分埔公園地下停車場", "地址": "臺北市信義區中坡北路57號地下", "身心障礙汽車格位統計數值": 4, "身心障礙機車格位統計數值": null, "無障礙電梯": "有", "無障礙廁所": "有", "無障礙樓梯扶手": "有" }, "geometry": { "type": "Point", "coordinates": [ 121.580413393329223, 25.046628843635879 ] } },
{ "type": "Feature", "properties": { "行政區": "信義區", "停車場名稱": "興雅國中地下停車場", "地址": "臺北市信義區松德路200巷18號地下", "身心障礙汽車格位統計數值": 9, "身心障礙機車格位統計數值": null, "無障礙電梯": "無", "無障礙廁所": "有", "無障礙樓梯扶手": "有" }, "geometry": { "type": "Point", "coordinates": [ 121.5727994, 25.0348365 ] } },
{ "type": "Feature", "properties": { "行政區": "信義區", "停車場名稱": "忠信公園地下停車場", "地址": "臺北市信義區松仁路2號地下", "身心障礙汽車格位統計數值": 7, "身心障礙機車格位統計數值": 5.0, "無障礙電梯": "有", "無障礙廁所": "有", "無障礙樓梯扶手": "有" }, "geometry": { "type": "Point", "coordinates": [ 121.568234348854546, 25.040544920638947 ] } },
{ "type": "Feature", "properties": { "行政區": "信義區", "停車場名稱": "信義廣場地下停車場", "地址": "臺北市信義區信義路5段11號地下", "身心障礙汽車格位統計數值": 8, "身心障礙機車格位統計數值": 3.0, "無障礙電梯": "有", "無障礙廁所": "有", "無障礙樓梯扶手": "有" }, "geometry": { "type": "Point", "coordinates": [ 121.56639823319621, 25.033142183894675 ] } },
{ "type": "Feature", "properties": { "行政區": "信義區", "停車場名稱": "春光公園地下停車場", "地址": "臺北市信義區忠孝東路5段666號地下", "身心障礙汽車格位統計數值": 5, "身心障礙機車格位統計數值": 3.0, "無障礙電梯": "有", "無障礙廁所": "有", "無障礙樓梯扶手": "有" }, "geometry": { "type": "Point", "coordinates": [ 121.580801895006061, 25.042336790595055 ] } },
{ "type": "Feature", "properties": { "行政區": "信義區", "停車場名稱": "三張里地下停車場", "地址": "臺北市信義區松平路81號地下", "身心障礙汽車格位統計數值": 8, "身心障礙機車格位統計數值": 4.0, "無障礙電梯": "有", "無障礙廁所": "有", "無障礙樓梯扶手": "有" }, "geometry": { "type": "Point", "coordinates": [ 121.566822992726586, 25.030582337723501 ] } },
{ "type": "Feature", "properties": { "行政區": "信義區", "停車場名稱": "災變中心地下停車場", "地址": "臺北市信義區莊敬路391巷11弄2號", "身心障礙汽車格位統計數值": 5, "身心障礙機車格位統計數值": 4.0, "無障礙電梯": "有", "無障礙廁所": "有", "無障礙樓梯扶手": "有" }, "geometry": { "type": "Point", "coordinates": [ 121.56593146911834, 25.02891905553853 ] } },
{ "type": "Feature", "properties": { "行政區": "信義區", "停車場名稱": "雅祥公園地下停車場", "地址": "臺北市信義區松隆路123巷7號地下", "身心障礙汽車格位統計數值": 5, "身心障礙機車格位統計數值": null, "無障礙電梯": "有", "無障礙廁所": "有", "無障礙樓梯扶手": "有" }, "geometry": { "type": "Point", "coordinates": [ 121.571736362013041, 25.047611301631111 ] } },
{ "type": "Feature", "properties": { "行政區": "信義區", "停車場名稱": "信義國小地下停車場", "地址": "臺北市信義區松勤路60號地下", "身心障礙汽車格位統計數值": 5, "身心障礙機車格位統計數值": 1.0, "無障礙電梯": "有", "無障礙廁所": "有", "無障礙樓梯扶手": "有" }, "geometry": { "type": "Point", "coordinates": [ 121.563224502825364, 25.031832546394899 ] } },
{ "type": "Feature", "properties": { "行政區": "信義區", "停車場名稱": "松山工農地下停車場", "地址": "臺北市信義區忠孝東路5段236巷15號", "身心障礙汽車格位統計數值": 5, "身心障礙機車格位統計數值": 4.0, "無障礙電梯": "有", "無障礙廁所": "有", "無障礙樓梯扶手": "有" }, "geometry": { "type": "Point", "coordinates": [ 121.572041133158777, 25.039852497062782 ] } },
{ "type": "Feature", "properties": { "行政區": "信義區", "停車場名稱": "松山車站地下停車場", "地址": "臺北市信義區松山路11號南廣場地下", "身心障礙汽車格位統計數值": 16, "身心障礙機車格位統計數值": null, "無障礙電梯": "有", "無障礙廁所": "有", "無障礙樓梯扶手": "有" }, "geometry": { "type": "Point", "coordinates": [ 121.578252481248128, 25.048455876514826 ] } },
{ "type": "Feature", "properties": { "行政區": "信義區", "停車場名稱": "景勤2號公園地下停車場", "地址": "臺北市信義區信安街49號", "身心障礙汽車格位統計數值": 5, "身心障礙機車格位統計數值": 3.0, "無障礙電梯": "有", "無障礙廁所": "有", "無障礙樓梯扶手": "有" }, "geometry": { "type": "Point", "coordinates": [ 121.558382968005134, 25.026893799971738 ] } },
{ "type": "Feature", "properties": { "行政區": "南港區", "停車場名稱": "興中立體停車場", "地址": "臺北市南港區興中路44巷1號", "身心障礙汽車格位統計數值": 13, "身心障礙機車格位統計數值": 4.0, "無障礙電梯": "有", "無障礙廁所": "有", "無障礙樓梯扶手": "有" }, "geometry": { "type": "Point", "coordinates": [ 121.606793379945913, 25.056171534316146 ] } },
{ "type": "Feature", "properties": { "行政區": "南港區", "停車場名稱": "成德立體(機械)", "地址": "臺北市南港區成福路1號", "身心障礙汽車格位統計數值": 5, "身心障礙機車格位統計數值": null, "無障礙電梯": "無", "無障礙廁所": "有", "無障礙樓梯扶手": "有" }, "geometry": { "type": "Point", "coordinates": [ 121.5860303, 25.0458906 ] } },
{ "type": "Feature", "properties": { "行政區": "南港區", "停車場名稱": "玉成國小地下停車場", "地址": "臺北市南港區昆陽街23號", "身心障礙汽車格位統計數值": 8, "身心障礙機車格位統計數值": 3.0, "無障礙電梯": "有", "無障礙廁所": "有", "無障礙樓梯扶手": "有" }, "geometry": { "type": "Point", "coordinates": [ 121.592739718930787, 25.053146479943219 ] } },
{ "type": "Feature", "properties": { "行政區": "南港區", "停車場名稱": "南港國小地下停車場", "地址": "臺北市南港區興東街59號", "身心障礙汽車格位統計數值": 8, "身心障礙機車格位統計數值": 2.0, "無障礙電梯": "有", "無障礙廁所": "有", "無障礙樓梯扶手": "有" }, "geometry": { "type": "Point", "coordinates": [ 121.6111734916622, 25.05652595107539 ] } },
{ "type": "Feature", "properties": { "行政區": "南港區", "停車場名稱": "玉成公園地下停車場", "地址": "臺北市南港區成福路118號地下", "身心障礙汽車格位統計數值": 9, "身心障礙機車格位統計數值": 3.0, "無障礙電梯": "有", "無障礙廁所": "有", "無障礙樓梯扶手": "有" }, "geometry": { "type": "Point", "coordinates": [ 121.586961204441849, 25.042212518866453 ] } },
{ "type": "Feature", "properties": { "行政區": "南港區", "停車場名稱": "南港世貿地下停車場", "地址": "臺北市南港區經貿二路88巷1號地下", "身心障礙汽車格位統計數值": 8, "身心障礙機車格位統計數值": 4.0, "無障礙電梯": "有", "無障礙廁所": "有", "無障礙樓梯扶手": "有" }, "geometry": { "type": "Point", "coordinates": [ 121.616240937524779, 25.05777577070991 ] } },
{ "type": "Feature", "properties": { "行政區": "南港區", "停車場名稱": "世貿公園地下停車場", "地址": "臺北市南港區經貿二路88巷1號地下", "身心障礙汽車格位統計數值": 8, "身心障礙機車格位統計數值": 4.0, "無障礙電梯": "有", "無障礙廁所": "有", "無障礙樓梯扶手": "有" }, "geometry": { "type": "Point", "coordinates": [ 121.616240937524779, 25.05777577070991 ] } },
{ "type": "Feature", "properties": { "行政區": "萬華區", "停車場名稱": "峨眉立體停車場", "地址": "臺北市萬華區峨眉街83號", "身心障礙汽車格位統計數值": 11, "身心障礙機車格位統計數值": 12.0, "無障礙電梯": "有", "無障礙廁所": "有", "無障礙樓梯扶手": "有" }, "geometry": { "type": "Point", "coordinates": [ 121.505267469604121, 25.043985206574934 ] } },
{ "type": "Feature", "properties": { "行政區": "萬華區", "停車場名稱": "洛陽立體停車場", "地址": "臺北市萬華區環河南路1段1號", "身心障礙汽車格位統計數值": 64, "身心障礙機車格位統計數值": 6.0, "無障礙電梯": "有", "無障礙廁所": "有", "無障礙樓梯扶手": "有" }, "geometry": { "type": "Point", "coordinates": [ 121.505897189881765, 25.048762160094586 ] } },
{ "type": "Feature", "properties": { "行政區": "萬華區", "停車場名稱": "古亭國中地下停車場", "地址": "臺北市萬華區中華路2段606巷1號地下", "身心障礙汽車格位統計數值": 6, "身心障礙機車格位統計數值": null, "無障礙電梯": "無", "無障礙廁所": "有", "無障礙樓梯扶手": "有" }, "geometry": { "type": "Point", "coordinates": [ 121.5100339, 25.0238805 ] } },
{ "type": "Feature", "properties": { "行政區": "萬華區", "停車場名稱": "青年高球場地下停車場", "地址": "臺北市萬華區國興路5號地下", "身心障礙汽車格位統計數值": 12, "身心障礙機車格位統計數值": 7.0, "無障礙電梯": "有", "無障礙廁所": "有", "無障礙樓梯扶手": "有" }, "geometry": { "type": "Point", "coordinates": [ 121.50775374925675, 25.024468235164914 ] } },
{ "type": "Feature", "properties": { "行政區": "萬華區", "停車場名稱": "雙園國中地下停車場", "地址": "臺北市萬華區西園路2段320巷55弄3號", "身心障礙汽車格位統計數值": 7, "身心障礙機車格位統計數值": null, "無障礙電梯": "有", "無障礙廁所": "有", "無障礙樓梯扶手": "有" }, "geometry": { "type": "Point", "coordinates": [ 121.492054238835664, 25.028298736084224 ] } },
{ "type": "Feature", "properties": { "行政區": "萬華區", "停車場名稱": "青年棒球場地下停車場", "地址": "臺北市萬華區青年路69號地下", "身心障礙汽車格位統計數值": 6, "身心障礙機車格位統計數值": 3.0, "無障礙電梯": "有", "無障礙廁所": "有", "無障礙樓梯扶手": "有" }, "geometry": { "type": "Point", "coordinates": [ 121.502965558284359, 25.023446205821315 ] } },
{ "type": "Feature", "properties": { "行政區": "萬華區", "停車場名稱": "萬板專案地下停車場", "地址": "臺北市萬華區艋舺大道460號地下", "身心障礙汽車格位統計數值": 4, "身心障礙機車格位統計數值": null, "無障礙電梯": "無", "無障礙廁所": "有", "無障礙樓梯扶手": "有" }, "geometry": { "type": "Point", "coordinates": [ 121.4935021, 25.0404794 ] } },
{ "type": "Feature", "properties": { "行政區": "萬華區", "停車場名稱": "艋舺公園地下停車場", "地址": "臺北市萬華區西園路1段145號地下", "身心障礙汽車格位統計數值": 13, "身心障礙機車格位統計數值": 6.0, "無障礙電梯": "有", "無障礙廁所": "無", "無障礙樓梯扶手": "有" }, "geometry": { "type": "Point", "coordinates": [ 121.499524085522907, 25.036141593578257 ] } },
{ "type": "Feature", "properties": { "行政區": "萬華區", "停車場名稱": "萬華國中地下停車場", "地址": "臺北市萬華區西藏路201號地下", "身心障礙汽車格位統計數值": 11, "身心障礙機車格位統計數值": 4.0, "無障礙電梯": "有", "無障礙廁所": "有", "無障礙樓梯扶手": "有" }, "geometry": { "type": "Point", "coordinates": [ 121.498702114720601, 25.029159242150676 ] } },
{ "type": "Feature", "properties": { "行政區": "萬華區", "停車場名稱": "莒光立體停車場", "地址": "臺北市萬華區莒光路137號", "身心障礙汽車格位統計數值": 3, "身心障礙機車格位統計數值": null, "無障礙電梯": "無", "無障礙廁所": "有", "無障礙樓梯扶手": "有" }, "geometry": { "type": "Point", "coordinates": [ 121.5034169, 25.0311115 ] } },
{ "type": "Feature", "properties": { "行政區": "萬華區", "停車場名稱": "新糖廍公園地下停車場", "地址": "臺北市萬華區大理街160巷2號地下", "身心障礙汽車格位統計數值": 2, "身心障礙機車格位統計數值": null, "無障礙電梯": "有", "無障礙廁所": "有", "無障礙樓梯扶手": "有" }, "geometry": { "type": "Point", "coordinates": [ 121.494157304553639, 25.033567977816986 ] } },
{ "type": "Feature", "properties": { "行政區": "萬華區", "停車場名稱": "萬華車站地下停車場", "地址": "臺北市萬華區康定路382號地下", "身心障礙汽車格位統計數值": 6, "身心障礙機車格位統計數值": null, "無障礙電梯": "無", "無障礙廁所": "有", "無障礙樓梯扶手": "有" }, "geometry": { "type": "Point", "coordinates": [ 121.500325576742412, 25.033382901731979 ] } },
{ "type": "Feature", "properties": { "行政區": "大同區", "停車場名稱": "延平國小地下停車場", "地址": "臺北市大同區昌吉街97號", "身心障礙汽車格位統計數值": 7, "身心障礙機車格位統計數值": 2.0, "無障礙電梯": "無", "無障礙廁所": "有", "無障礙樓梯扶手": "有" }, "geometry": { "type": "Point", "coordinates": [ 121.512363065370906, 25.066030171737577 ] } },
{ "type": "Feature", "properties": { "行政區": "內湖區", "停車場名稱": "大港墘地下停車場", "地址": "臺北市大同區洲子街18號地下", "身心障礙汽車格位統計數值": 6, "身心障礙機車格位統計數值": 6.0, "無障礙電梯": "無", "無障礙廁所": "有", "無障礙樓梯扶手": "有" }, "geometry": { "type": "Point", "coordinates": [ 121.57498769913181, 25.078502208623647 ] } }
]
}
